HXMT (HUIYAN)           
1 42758U 17034A   26064.36742706  .00007100  00000+0  35570-3 0  9994
2 42758  43.0151  40.7011 0032483 209.5305 150.3709 15.17392855481889
SAOCOM 1A               
1 43641U 18076A   26064.57484819  .00000325  00000+0  47398-4 0  9998
2 43641  97.8882 252.8054 0001283  82.6047 277.5312 14.82163859400759
H-2A R/B                
1 43682U 18084L   26064.57776741  .00024381  00000+0  58318-3 0  9991
2 43682  98.8727 281.0878 0025755  39.2012 321.1089 15.41138735405147
SAOCOM 1B               
1 46265U 20059A   26064.67357735  .00000734  00000+0  98783-4 0  9992
2 46265  97.8880 252.0007 0001429  82.6320 277.5056 14.82168058298158
CSS (TIANHE)            
1 48274U 21035A   26064.55578758  .00019337  00000+0  23188-3 0  9991
2 48274  41.4657 233.3100 0006864 247.1832 112.8282 15.60433514276963
COSMOS 2550             
1 48865U 21056A   26064.34404624 -.00000197  00000+0 -17237-6 0  9994
2 48865  67.1449  54.0765 0008372 269.5213  90.4982 15.33827483262791
CZ-2C R/B               
1 52794U 22058K   26064.13995878  .00037686  00000+0  55741-3 0  9996
2 52794  50.1909 341.6872 0042075 181.2962 178.7906 15.53849210209424
CZ-2C R/B               
1 54039U 22132E   26064.52694389  .00047820  00000+0  55359-3 0  9995
2 54039  97.2958  67.7190 0020758 104.7871 255.5688 15.61437567189724
GSLV R/B                
1 54149U 22138AN  26064.24144157  .00004744  00000+0  41075-3 0  9993
2 54149  87.3887 167.8509 0022391 162.0590 198.1437 14.96738149183267
XRISM                   
1 57800U 23137A   26064.08395891  .00007086  00000+0  40306-3 0  9993
2 57800  31.0029 313.4527 0008122 351.8434   8.2072 15.11436955137092
ACS3                    
1 59588U 24077B   26064.46544706  .00024652  00000+0  19918-1 0  9996
2 59588  97.2101   6.5274 0056562  87.8329 272.9310 13.89382460 93619
SZ-21 MODULE            
1 66515U 25246C   26064.48874604  .00042292  00000+0  36915-3 0  9996
2 66515  41.4735 229.2137 0001473 290.7926  69.2758 15.68168011 17412
