[{"OBJECT_NAME":"HXMT (HUIYAN)","OBJECT_ID":"2017-034A","EPOCH":"2026-03-05T08:49:05.697984","MEAN_MOTION":15.17392855,"ECCENTRICITY":0.00324839,"INCLINATION":43.0151,"RA_OF_ASC_NODE":40.7011,"ARG_OF_PERICENTER":209.5305,"MEAN_ANOMALY":150.3709,"EPHEMERIS_TYPE":0,"CLASSIFICATION_TYPE":"U","NORAD_CAT_ID":42758,"ELEMENT_SET_NO":999,"REV_AT_EPOCH":48188,"BSTAR":0.00035570383,"MEAN_MOTION_DOT":7.1e-5,"MEAN_MOTION_DDOT":0},{"OBJECT_NAME":"SAOCOM 1A","OBJECT_ID":"2018-076A","EPOCH":"2026-03-05T13:47:46.883616","MEAN_MOTION":14.82163859,"ECCENTRICITY":0.00012831,"INCLINATION":97.8882,"RA_OF_ASC_NODE":252.8054,"ARG_OF_PERICENTER":82.6047,"MEAN_ANOMALY":277.5312,"EPHEMERIS_TYPE":0,"CLASSIFICATION_TYPE":"U","NORAD_CAT_ID":43641,"ELEMENT_SET_NO":999,"REV_AT_EPOCH":40075,"BSTAR":4.7398084e-5,"MEAN_MOTION_DOT":3.25e-6,"MEAN_MOTION_DDOT":0},{"OBJECT_NAME":"H-2A R/B","OBJECT_ID":"2018-084L","EPOCH":"2026-03-05T13:51:59.104224","MEAN_MOTION":15.41138735,"ECCENTRICITY":0.00257556,"INCLINATION":98.8727,"RA_OF_ASC_NODE":281.0878,"ARG_OF_PERICENTER":39.2012,"MEAN_ANOMALY":321.1089,"EPHEMERIS_TYPE":0,"CLASSIFICATION_TYPE":"U","NORAD_CAT_ID":43682,"ELEMENT_SET_NO":999,"REV_AT_EPOCH":40514,"BSTAR":0.00058318436,"MEAN_MOTION_DOT":0.00024381,"MEAN_MOTION_DDOT":0},{"OBJECT_NAME":"SAOCOM 1B","OBJECT_ID":"2020-059A","EPOCH":"2026-03-05T16:09:57.083040","MEAN_MOTION":14.82168058,"ECCENTRICITY":0.00014298,"INCLINATION":97.888,"RA_OF_ASC_NODE":252.0007,"ARG_OF_PERICENTER":82.632,"MEAN_ANOMALY":277.5056,"EPHEMERIS_TYPE":0,"CLASSIFICATION_TYPE":"U","NORAD_CAT_ID":46265,"ELEMENT_SET_NO":999,"REV_AT_EPOCH":29815,"BSTAR":9.8782762e-5,"MEAN_MOTION_DOT":7.34e-6,"MEAN_MOTION_DDOT":0},{"OBJECT_NAME":"CSS (TIANHE)","OBJECT_ID":"2021-035A","EPOCH":"2026-03-05T13:20:20.046912","MEAN_MOTION":15.60433514,"ECCENTRICITY":0.00068649,"INCLINATION":41.4657,"RA_OF_ASC_NODE":233.31,"ARG_OF_PERICENTER":247.1832,"MEAN_ANOMALY":112.8282,"EPHEMERIS_TYPE":0,"CLASSIFICATION_TYPE":"U","NORAD_CAT_ID":48274,"ELEMENT_SET_NO":999,"REV_AT_EPOCH":27696,"BSTAR":0.00023188471,"MEAN_MOTION_DOT":0.00019337,"MEAN_MOTION_DDOT":0},{"OBJECT_NAME":"COSMOS 2550","OBJECT_ID":"2021-056A","EPOCH":"2026-03-05T08:15:25.595136","MEAN_MOTION":15.33827483,"ECCENTRICITY":0.00083725,"INCLINATION":67.1449,"RA_OF_ASC_NODE":54.0765,"ARG_OF_PERICENTER":269.5213,"MEAN_ANOMALY":90.4982,"EPHEMERIS_TYPE":0,"CLASSIFICATION_TYPE":"U","NORAD_CAT_ID":48865,"ELEMENT_SET_NO":999,"REV_AT_EPOCH":26279,"BSTAR":-1.72372e-7,"MEAN_MOTION_DOT":-1.97e-6,"MEAN_MOTION_DDOT":0},{"OBJECT_NAME":"CZ-2C R/B","OBJECT_ID":"2022-058K","EPOCH":"2026-03-05T03:21:32.438592","MEAN_MOTION":15.5384921,"ECCENTRICITY":0.00420759,"INCLINATION":50.1909,"RA_OF_ASC_NODE":341.6872,"ARG_OF_PERICENTER":181.2962,"MEAN_ANOMALY":178.7906,"EPHEMERIS_TYPE":0,"CLASSIFICATION_TYPE":"U","NORAD_CAT_ID":52794,"ELEMENT_SET_NO":999,"REV_AT_EPOCH":20942,"BSTAR":0.00055741068,"MEAN_MOTION_DOT":0.00037686,"MEAN_MOTION_DDOT":0},{"OBJECT_NAME":"CZ-2C R/B","OBJECT_ID":"2022-132E","EPOCH":"2026-03-05T12:38:47.952096","MEAN_MOTION":15.61437567,"ECCENTRICITY":0.00207584,"INCLINATION":97.2958,"RA_OF_ASC_NODE":67.719,"ARG_OF_PERICENTER":104.7871,"MEAN_ANOMALY":255.5688,"EPHEMERIS_TYPE":0,"CLASSIFICATION_TYPE":"U","NORAD_CAT_ID":54039,"ELEMENT_SET_NO":999,"REV_AT_EPOCH":18972,"BSTAR":0.00055359076,"MEAN_MOTION_DOT":0.0004782,"MEAN_MOTION_DDOT":0},{"OBJECT_NAME":"GSLV R/B","OBJECT_ID":"2022-138AN","EPOCH":"2026-03-05T05:47:40.551648","MEAN_MOTION":14.96738149,"ECCENTRICITY":0.00223919,"INCLINATION":87.3887,"RA_OF_ASC_NODE":167.8509,"ARG_OF_PERICENTER":162.059,"MEAN_ANOMALY":198.1437,"EPHEMERIS_TYPE":0,"CLASSIFICATION_TYPE":"U","NORAD_CAT_ID":54149,"ELEMENT_SET_NO":999,"REV_AT_EPOCH":18326,"BSTAR":0.00041075251,"MEAN_MOTION_DOT":4.744e-5,"MEAN_MOTION_DDOT":0},{"OBJECT_NAME":"XRISM","OBJECT_ID":"2023-137A","EPOCH":"2026-03-05T02:00:54.049824","MEAN_MOTION":15.11436955,"ECCENTRICITY":0.00081225,"INCLINATION":31.0029,"RA_OF_ASC_NODE":313.4527,"ARG_OF_PERICENTER":351.8434,"MEAN_ANOMALY":8.2072,"EPHEMERIS_TYPE":0,"CLASSIFICATION_TYPE":"U","NORAD_CAT_ID":57800,"ELEMENT_SET_NO":999,"REV_AT_EPOCH":13709,"BSTAR":0.00040305953,"MEAN_MOTION_DOT":7.086e-5,"MEAN_MOTION_DDOT":0},{"OBJECT_NAME":"ACS3","OBJECT_ID":"2024-077B","EPOCH":"2026-03-05T11:10:14.625984","MEAN_MOTION":13.8938246,"ECCENTRICITY":0.0056562,"INCLINATION":97.2101,"RA_OF_ASC_NODE":6.5274,"ARG_OF_PERICENTER":87.8329,"MEAN_ANOMALY":272.931,"EPHEMERIS_TYPE":0,"CLASSIFICATION_TYPE":"U","NORAD_CAT_ID":59588,"ELEMENT_SET_NO":999,"REV_AT_EPOCH":9361,"BSTAR":0.019918121,"MEAN_MOTION_DOT":0.00024652,"MEAN_MOTION_DDOT":0},{"OBJECT_NAME":"SZ-21 MODULE","OBJECT_ID":"2025-246C","EPOCH":"2026-03-05T11:43:47.657856","MEAN_MOTION":15.68168011,"ECCENTRICITY":0.00014734,"INCLINATION":41.4735,"RA_OF_ASC_NODE":229.2137,"ARG_OF_PERICENTER":290.7926,"MEAN_ANOMALY":69.2758,"EPHEMERIS_TYPE":0,"CLASSIFICATION_TYPE":"U","NORAD_CAT_ID":66515,"ELEMENT_SET_NO":999,"REV_AT_EPOCH":1741,"BSTAR":0.0003691524,"MEAN_MOTION_DOT":0.00042292,"MEAN_MOTION_DDOT":0}]
